SL-16 R/B               
1 25400U 98043G   25362.79590073  .00000104  00000+0  62534-4 0  9991
2 25400  98.8148 310.7057 0009154 215.2113 144.8463 14.26029417428884
SL-16 R/B               
1 25407U 98045B   25362.65732192  .00000199  00000+0  12481-3 0  9994
2 25407  71.0124 330.9515 0005953 150.1123 210.0341 14.16180263417045
ISS (ZARYA)             
1 25544U 98067A   25362.53357479  .00015441  00000+0  27889-3 0  9992
2 25544  51.6321  64.2558 0003250 314.4858  45.5864 15.49907133545304
CZ-4B R/B               
1 25732U 99025C   25362.85642850  .00000075  00000+0  56944-4 0  9993
2 25732  98.6747  43.7743 0037028 187.1076 346.1958 14.18247596378124
OKEAN-O                 
1 25860U 99039A   25362.67573242  .00000915  00000+0  12735-3 0  9990
2 25860  97.9581  58.2380 0001211 115.0359 245.0979 14.80189206423887
SL-16 R/B               
1 25861U 99039B   25362.72306939  .00000793  00000+0  10762-3 0  9996
2 25861  98.0105  56.8737 0015958 124.9757 235.2956 14.81610356426353
DELTA 2 R/B             
1 25876U 99041E   25362.78702763  .00001888  00000+0  34252-3 0  9992
2 25876  51.7596 224.3854 0504378 139.0591 224.9379 14.11448531353016
HELIOS 1B               
1 25977U 99064A   25362.68067094  .00002560  00000+0  28983-3 0  9991
2 25977  98.1750 257.8195 0000759  31.9859 328.1402 14.87349467674702
TERRA                   
1 25994U 99068A   25362.83494089  .00000596  00000+0  13087-3 0  9995
2 25994  97.9727  53.9269 0003306  62.0510  27.1517 14.60920487384731
SL-16 R/B               
1 26070U 00006B   25362.79557465  .00000295  00000+0  17389-3 0  9993
2 26070  71.0010 246.8993 0018625 286.9789  72.9292 14.15810919338529
TITAN 4B R/B            
1 26474U 00047B   25362.85146656  .00004397  00000+0  28196-3 0  9994
2 26474  67.9888 239.6023 0037856 124.7691 235.7031 15.08901053382225
ENVISAT                 
1 27386U 02009A   25352.94754304  .00000081  00000+0  39999-4 0  9991
2 27386  98.3609 303.5309 0001126  84.8976 298.2993 14.39001403247569
